APRIZESAT 3             
1 35686U 09041F   17345.92288494  .00000093  00000-0  16737-4 0  9998
2 35686  98.2790 352.9969 0073699 155.3047 205.1725 14.87154016453558
